[{"OBJECT_NAME":"STARLINK-3966","OBJECT_ID":"2022-051V","EPOCH":"2026-03-09T08:07:20.180928","MEAN_MOTION":15.08835623,"ECCENTRICITY":0.00012359,"INCLINATION":53.2168,"RA_OF_ASC_NODE":130.8518,"ARG_OF_PERICENTER":101.291,"MEAN_ANOMALY":258.8221,"EPHEMERIS_TYPE":0,"CLASSIFICATION_TYPE":"U","NORAD_CAT_ID":52552,"ELEMENT_SET_NO":999,"REV_AT_EPOCH":21139,"BSTAR":-0.00012890158,"MEAN_MOTION_DOT":-2.338e-5,"MEAN_MOTION_DDOT":0},{"OBJECT_NAME":"SCOUT X-4 R\/B","OBJECT_ID":"1964-076C","EPOCH":"2026-03-09T21:31:37.688736","MEAN_MOTION":12.82292935,"ECCENTRICITY":0.10503796,"INCLINATION":81.3341,"RA_OF_ASC_NODE":228.4824,"ARG_OF_PERICENTER":226.0934,"MEAN_ANOMALY":124.8691,"EPHEMERIS_TYPE":0,"CLASSIFICATION_TYPE":"U","NORAD_CAT_ID":933,"ELEMENT_SET_NO":999,"REV_AT_EPOCH":82385,"BSTAR":0.00066284647,"MEAN_MOTION_DOT":1.978e-5,"MEAN_MOTION_DDOT":0}]
